{
  "type": "FeatureCollection",
  "features": [
    {
      "type": "Feature",
      "properties": {
        "norad_id": 66858,
        "name": "STARLINK-35118",
        "group": "last-30-days",
        "lat": 42.978127169599226,
        "lon": -143.3435413058925,
        "alt_km": 289.407035031546,
        "timestamp": "2025-12-12T03:50:51.178810+00:00",
        "meta_object_name": "STARLINK-35118",
        "meta_object_id": "2025-281L",
        "meta_epoch": "2025-12-10T16:00:01.999584",
        "meta_mean_motion": 15.96046904,
        "meta_eccentricity": 0.00016257,
        "meta_inclination": 43.0016,
        "meta_ra_of_asc_node": 135.2559,
        "meta_arg_of_pericenter": 274.4321,
        "meta_mean_anomaly": 232.4648,
        "meta_ephemeris_type": 0,
        "meta_classification_type": "U",
        "meta_norad_cat_id": 66858,
        "meta_element_set_no": 999,
        "meta_rev_at_epoch": 246,
        "meta_bstar": -0.002802372,
        "meta_mean_motion_dot": -0.01195394,
        "meta_mean_motion_ddot": 0.00043584987,
        "tle_line1": "1 66858U 25281L   25344.66668981 -.01195394  43585-3 -28024-2 0  9999",
        "tle_line2": "2 66858  43.0016 135.2559 0001625 274.4321 232.4648 15.96046904  2461"
      },
      "geometry": {
        "type": "Point",
        "coordinates": [
          -143.3435413058925,
          42.978127169599226
        ]
      }
    },
    {
      "type": "Feature",
      "properties": {
        "norad_id": 66859,
        "name": "STARLINK-35646",
        "group": "last-30-days",
        "lat": 42.89952467043974,
        "lon": -139.7651974969842,
        "alt_km": 289.3521502221065,
        "timestamp": "2025-12-12T03:50:51.178820+00:00",
        "meta_object_name": "STARLINK-35646",
        "meta_object_id": "2025-281M",
        "meta_epoch": "2025-12-10T16:00:01.999584",
        "meta_mean_motion": 15.96125298,
        "meta_eccentricity": 0.00016815,
        "meta_inclination": 43.0016,
        "meta_ra_of_asc_node": 135.2504,
        "meta_arg_of_pericenter": 276.3454,
        "meta_mean_anomaly": 232.8564,
        "meta_ephemeris_type": 0,
        "meta_classification_type": "U",
        "meta_norad_cat_id": 66859,
        "meta_element_set_no": 999,
        "meta_rev_at_epoch": 246,
        "meta_bstar": -0.0028252473,
        "meta_mean_motion_dot": -0.01210178,
        "meta_mean_motion_ddot": 0.00044610917,
        "tle_line1": "1 66859U 25281M   25344.66668981 -.01210178  44611-3 -28252-2 0  9992",
        "tle_line2": "2 66859  43.0016 135.2504 0001681 276.3454 232.8564 15.96125298  2467"
      },
      "geometry": {
        "type": "Point",
        "coordinates": [
          -139.7651974969842,
          42.89952467043974
        ]
      }
    },
    {
      "type": "Feature",
      "properties": {
        "norad_id": 66860,
        "name": "STARLINK-35987",
        "group": "last-30-days",
        "lat": 40.705703783009206,
        "lon": -121.50778437708549,
        "alt_km": 288.8185625541746,
        "timestamp": "2025-12-12T03:50:51.178834+00:00",
        "meta_object_name": "STARLINK-35987",
        "meta_object_id": "2025-281N",
        "meta_epoch": "2025-12-10T16:00:01.999584",
        "meta_mean_motion": 15.96505755,
        "meta_eccentricity": 0.00015818,
        "meta_inclination": 43.0016,
        "meta_ra_of_asc_node": 135.2202,
        "meta_arg_of_pericenter": 268.6575,
        "meta_mean_anomaly": 252.4584,
        "meta_ephemeris_type": 0,
        "meta_classification_type": "U",
        "meta_norad_cat_id": 66860,
        "meta_element_set_no": 999,
        "meta_rev_at_epoch": 246,
        "meta_bstar": -0.0028282072,
        "meta_mean_motion_dot": -0.01236658,
        "meta_mean_motion_ddot": 0.00046592572,
        "tle_line1": "1 66860U 25281N   25344.66668981 -.01236658  46593-3 -28282-2 0  9999",
        "tle_line2": "2 66860  43.0016 135.2202 0001581 268.6575 252.4584 15.96505755  2461"
      },
      "geometry": {
        "type": "Point",
        "coordinates": [
          -121.50778437708549,
          40.705703783009206
        ]
      }
    },
    {
      "type": "Feature",
      "properties": {
        "norad_id": 66861,
        "name": "STARLINK-35991",
        "group": "last-30-days",
        "lat": 42.38530640568908,
        "lon": -132.4298973537101,
        "alt_km": 289.1278403071001,
        "timestamp": "2025-12-12T03:50:51.178844+00:00",
        "meta_object_name": "STARLINK-35991",
        "meta_object_id": "2025-281P",
        "meta_epoch": "2025-12-10T16:00:01.999584",
        "meta_mean_motion": 15.96277539,
        "meta_eccentricity": 0.00015893,
        "meta_inclination": 43.0017,
        "meta_ra_of_asc_node": 135.2384,
        "meta_arg_of_pericenter": 271.8161,
        "meta_mean_anomaly": 242.1053,
        "meta_ephemeris_type": 0,
        "meta_classification_type": "U",
        "meta_norad_cat_id": 66861,
        "meta_element_set_no": 999,
        "meta_rev_at_epoch": 246,
        "meta_bstar": -0.0028387746,
        "meta_mean_motion_dot": -0.01225954,
        "meta_mean_motion_ddot": 0.00045750931,
        "tle_line1": "1 66861U 25281P   25344.66668981 -.01225954  45751-3 -28388-2 0  9999",
        "tle_line2": "2 66861  43.0017 135.2384 0001589 271.8161 242.1053 15.96277539  2462"
      },
      "geometry": {
        "type": "Point",
        "coordinates": [
          -132.4298973537101,
          42.38530640568908
        ]
      }
    },
    {
      "type": "Feature",
      "properties": {
        "norad_id": 66862,
        "name": "STARLINK-35974",
        "group": "last-30-days",
        "lat": 42.68586329543481,
        "lon": -135.86751066608858,
        "alt_km": 289.1765956395466,
        "timestamp": "2025-12-12T03:50:51.178856+00:00",
        "meta_object_name": "STARLINK-35974",
        "meta_object_id": "2025-281Q",
        "meta_epoch": "2025-12-10T16:00:01.999584",
        "meta_mean_motion": 15.96204816,
        "meta_eccentricity": 0.00015852,
        "meta_inclination": 43.0016,
        "meta_ra_of_asc_node": 135.2443,
        "meta_arg_of_pericenter": 276.2426,
        "meta_mean_anomaly": 235.4564,
        "meta_ephemeris_type": 0,
        "meta_classification_type": "U",
        "meta_norad_cat_id": 66862,
        "meta_element_set_no": 999,
        "meta_rev_at_epoch": 246,
        "meta_bstar": -0.0028310506,
        "meta_mean_motion_dot": -0.01217847,
        "meta_mean_motion_ddot": 0.00045165679,
        "tle_line1": "1 66862U 25281Q   25344.66668981 -.01217847  45166-3 -28311-2 0  9998",
        "tle_line2": "2 66862  43.0016 135.2443 0001585 276.2426 235.4564 15.96204816  2467"
      },
      "geometry": {
        "type": "Point",
        "coordinates": [
          -135.86751066608858,
          42.68586329543481
        ]
      }
    },
    {
      "type": "Feature",
      "properties": {
        "norad_id": 66863,
        "name": "STARLINK-36134",
        "group": "last-30-days",
        "lat": 41.83249296711522,
        "lon": -127.94871903617965,
        "alt_km": 288.98976606110864,
        "timestamp": "2025-12-12T03:50:51.178868+00:00",
        "meta_object_name": "STARLINK-36134",
        "meta_object_id": "2025-281R",
        "meta_epoch": "2025-12-10T16:00:01.999584",
        "meta_mean_motion": 15.96368931,
        "meta_eccentricity": 0.00015593,
        "meta_inclination": 43.002,
        "meta_ra_of_asc_node": 135.2311,
        "meta_arg_of_pericenter": 271.3805,
        "meta_mean_anomaly": 245.4654,
        "meta_ephemeris_type": 0,
        "meta_classification_type": "U",
        "meta_norad_cat_id": 66863,
        "meta_element_set_no": 999,
        "meta_rev_at_epoch": 246,
        "meta_bstar": -0.0028390273,
        "meta_mean_motion_dot": -0.01232146,
        "meta_mean_motion_ddot": 0.00046217446,
        "tle_line1": "1 66863U 25281R   25344.66668981 -.01232146  46217-3 -28390-2 0  9993",
        "tle_line2": "2 66863  43.0020 135.2311 0001559 271.3805 245.4654 15.96368931  2465"
      },
      "geometry": {
        "type": "Point",
        "coordinates": [
          -127.94871903617965,
          41.83249296711522
        ]
      }
    },
    {
      "type": "Feature",
      "properties": {
        "norad_id": 66864,
        "name": "STARLINK-36070",
        "group": "last-30-days",
        "lat": 41.33022351950528,
        "lon": -124.79201852828126,
        "alt_km": 288.86948427611514,
        "timestamp": "2025-12-12T03:50:51.178878+00:00",
        "meta_object_name": "STARLINK-36070",
        "meta_object_id": "2025-281S",
        "meta_epoch": "2025-12-10T16:00:01.999584",
        "meta_mean_motion": 15.96435157,
        "meta_eccentricity": 0.00015459,
        "meta_inclination": 43.0019,
        "meta_ra_of_asc_node": 135.2256,
        "meta_arg_of_pericenter": 273.7453,
        "meta_mean_anomaly": 245.1559,
        "meta_ephemeris_type": 0,
        "meta_classification_type": "U",
        "meta_norad_cat_id": 66864,
        "meta_element_set_no": 999,
        "meta_rev_at_epoch": 246,
        "meta_bstar": -0.0028280569,
        "meta_mean_motion_dot": -0.01231853,
        "meta_mean_motion_ddot": 0.00046228589,
        "tle_line1": "1 66864U 25281S   25344.66668981 -.01231853  46229-3 -28281-2 0  9990",
        "tle_line2": "2 66864  43.0019 135.2256 0001545 273.7453 245.1559 15.96435157  2468"
      },
      "geometry": {
        "type": "Point",
        "coordinates": [
          -124.79201852828126,
          41.33022351950528
        ]
      }
    }
  ]
}